[{"OBJECT_NAME":"KUIPER-00198","OBJECT_ID":"2026-030G","EPOCH":"2026-03-12T18:00:09.249120","MEAN_MOTION":15.36244731,"ECCENTRICITY":0.00038649,"INCLINATION":51.8815,"RA_OF_ASC_NODE":204.335,"ARG_OF_PERICENTER":50.0974,"MEAN_ANOMALY":310.0351,"EPHEMERIS_TYPE":0,"CLASSIFICATION_TYPE":"U","NORAD_CAT_ID":67770,"ELEMENT_SET_NO":999,"REV_AT_EPOCH":556,"BSTAR":0.00091727847,"MEAN_MOTION_DOT":0.00032668,"MEAN_MOTION_DDOT":0},{"OBJECT_NAME":"KUIPER-00199","OBJECT_ID":"2026-030H","EPOCH":"2026-03-12T18:43:11.422848","MEAN_MOTION":15.34538938,"ECCENTRICITY":0.0010957,"INCLINATION":51.8816,"RA_OF_ASC_NODE":204.5267,"ARG_OF_PERICENTER":68.1463,"MEAN_ANOMALY":292.0687,"EPHEMERIS_TYPE":0,"CLASSIFICATION_TYPE":"U","NORAD_CAT_ID":67771,"ELEMENT_SET_NO":999,"REV_AT_EPOCH":556,"BSTAR":0.0010238937,"MEAN_MOTION_DOT":0.0003462,"MEAN_MOTION_DDOT":0},{"OBJECT_NAME":"KUIPER-00200","OBJECT_ID":"2026-030J","EPOCH":"2026-03-13T09:10:17.120640","MEAN_MOTION":15.37284018,"ECCENTRICITY":9.214e-5,"INCLINATION":51.8806,"RA_OF_ASC_NODE":201.076,"ARG_OF_PERICENTER":282.8491,"MEAN_ANOMALY":77.2393,"EPHEMERIS_TYPE":0,"CLASSIFICATION_TYPE":"U","NORAD_CAT_ID":67772,"ELEMENT_SET_NO":999,"REV_AT_EPOCH":566,"BSTAR":0.00079730096,"MEAN_MOTION_DOT":0.00029303,"MEAN_MOTION_DDOT":0},{"OBJECT_NAME":"KUIPER-00203","OBJECT_ID":"2026-030K","EPOCH":"2026-03-13T14:00:01.000224","MEAN_MOTION":15.073729,"ECCENTRICITY":0.00116817,"INCLINATION":51.8931,"RA_OF_ASC_NODE":202.0625,"ARG_OF_PERICENTER":75.0118,"MEAN_ANOMALY":20.2528,"EPHEMERIS_TYPE":0,"CLASSIFICATION_TYPE":"U","NORAD_CAT_ID":67773,"ELEMENT_SET_NO":999,"REV_AT_EPOCH":425,"BSTAR":-0.072278298,"MEAN_MOTION_DOT":-0.01029508,"MEAN_MOTION_DDOT":0},{"OBJECT_NAME":"KUIPER-00205","OBJECT_ID":"2026-030L","EPOCH":"2026-03-13T07:54:43.549344","MEAN_MOTION":15.36606584,"ECCENTRICITY":0.0003811,"INCLINATION":51.8812,"RA_OF_ASC_NODE":201.4717,"ARG_OF_PERICENTER":32.3796,"MEAN_ANOMALY":327.7424,"EPHEMERIS_TYPE":0,"CLASSIFICATION_TYPE":"U","NORAD_CAT_ID":67774,"ELEMENT_SET_NO":999,"REV_AT_EPOCH":565,"BSTAR":0.00089022205,"MEAN_MOTION_DOT":0.00032065,"MEAN_MOTION_DDOT":0},{"OBJECT_NAME":"KUIPER-00208","OBJECT_ID":"2026-030M","EPOCH":"2026-03-13T09:21:46.848384","MEAN_MOTION":15.32220488,"ECCENTRICITY":0.00158262,"INCLINATION":51.8829,"RA_OF_ASC_NODE":201.8662,"ARG_OF_PERICENTER":70.3346,"MEAN_ANOMALY":289.9345,"EPHEMERIS_TYPE":0,"CLASSIFICATION_TYPE":"U","NORAD_CAT_ID":67775,"ELEMENT_SET_NO":999,"REV_AT_EPOCH":565,"BSTAR":0.00086446007,"MEAN_MOTION_DOT":0.00027117,"MEAN_MOTION_DDOT":0},{"OBJECT_NAME":"KUIPER-00209","OBJECT_ID":"2026-030N","EPOCH":"2026-03-13T00:20:57.905376","MEAN_MOTION":15.29684337,"ECCENTRICITY":0.00129444,"INCLINATION":51.885,"RA_OF_ASC_NODE":203.8399,"ARG_OF_PERICENTER":71.0162,"MEAN_ANOMALY":289.2223,"EPHEMERIS_TYPE":0,"CLASSIFICATION_TYPE":"U","NORAD_CAT_ID":67776,"ELEMENT_SET_NO":999,"REV_AT_EPOCH":559,"BSTAR":0.001216325,"MEAN_MOTION_DOT":0.00035377,"MEAN_MOTION_DDOT":0},{"OBJECT_NAME":"KUIPER-00213","OBJECT_ID":"2026-030P","EPOCH":"2026-03-13T09:19:39.645120","MEAN_MOTION":15.32729182,"ECCENTRICITY":0.00156114,"INCLINATION":51.8798,"RA_OF_ASC_NODE":201.8465,"ARG_OF_PERICENTER":74.4465,"MEAN_ANOMALY":285.8242,"EPHEMERIS_TYPE":0,"CLASSIFICATION_TYPE":"U","NORAD_CAT_ID":67777,"ELEMENT_SET_NO":999,"REV_AT_EPOCH":565,"BSTAR":0.00086284591,"MEAN_MOTION_DOT":0.00027505,"MEAN_MOTION_DDOT":0},{"OBJECT_NAME":"KUIPER-00214","OBJECT_ID":"2026-030Q","EPOCH":"2026-03-13T09:16:31.190304","MEAN_MOTION":15.36984547,"ECCENTRICITY":6.232e-5,"INCLINATION":51.8838,"RA_OF_ASC_NODE":201.1124,"ARG_OF_PERICENTER":74.7281,"MEAN_ANOMALY":285.3775,"EPHEMERIS_TYPE":0,"CLASSIFICATION_TYPE":"U","NORAD_CAT_ID":67778,"ELEMENT_SET_NO":999,"REV_AT_EPOCH":566,"BSTAR":0.0011266262,"MEAN_MOTION_DOT":0.0004123,"MEAN_MOTION_DDOT":0},{"OBJECT_NAME":"KUIPER-00215","OBJECT_ID":"2026-030R","EPOCH":"2026-03-11T17:39:47.569536","MEAN_MOTION":15.34588543,"ECCENTRICITY":0.00105203,"INCLINATION":51.8834,"RA_OF_ASC_NODE":209.5383,"ARG_OF_PERICENTER":66.2297,"MEAN_ANOMALY":293.9791,"EPHEMERIS_TYPE":0,"CLASSIFICATION_TYPE":"U","NORAD_CAT_ID":67779,"ELEMENT_SET_NO":999,"REV_AT_EPOCH":540,"BSTAR":0.0009528564,"MEAN_MOTION_DOT":0.00032228,"MEAN_MOTION_DDOT":0},{"OBJECT_NAME":"KUIPER-00218","OBJECT_ID":"2026-030S","EPOCH":"2026-03-12T15:13:59.687040","MEAN_MOTION":15.35355842,"ECCENTRICITY":0.0007103,"INCLINATION":51.8841,"RA_OF_ASC_NODE":205.0636,"ARG_OF_PERICENTER":58.4826,"MEAN_ANOMALY":301.6853,"EPHEMERIS_TYPE":0,"CLASSIFICATION_TYPE":"U","NORAD_CAT_ID":67780,"ELEMENT_SET_NO":999,"REV_AT_EPOCH":554,"BSTAR":0.00095182,"MEAN_MOTION_DOT":0.0003297,"MEAN_MOTION_DDOT":0},{"OBJECT_NAME":"KUIPER-00220","OBJECT_ID":"2026-030T","EPOCH":"2026-03-13T08:36:55.337184","MEAN_MOTION":15.34974825,"ECCENTRICITY":0.00092515,"INCLINATION":51.8828,"RA_OF_ASC_NODE":201.6627,"ARG_OF_PERICENTER":66.482,"MEAN_ANOMALY":293.7137,"EPHEMERIS_TYPE":0,"CLASSIFICATION_TYPE":"U","NORAD_CAT_ID":67781,"ELEMENT_SET_NO":999,"REV_AT_EPOCH":565,"BSTAR":0.00090215783,"MEAN_MOTION_DOT":0.00030856,"MEAN_MOTION_DDOT":0},{"OBJECT_NAME":"KUIPER-00222","OBJECT_ID":"2026-030U","EPOCH":"2026-03-13T14:00:01.000224","MEAN_MOTION":15.32196488,"ECCENTRICITY":0.00175753,"INCLINATION":51.8797,"RA_OF_ASC_NODE":200.975,"ARG_OF_PERICENTER":79.74,"MEAN_ANOMALY":244.8438,"EPHEMERIS_TYPE":0,"CLASSIFICATION_TYPE":"U","NORAD_CAT_ID":67782,"ELEMENT_SET_NO":999,"REV_AT_EPOCH":553,"BSTAR":9.6734661e-5,"MEAN_MOTION_DOT":2.687e-5,"MEAN_MOTION_DDOT":0},{"OBJECT_NAME":"KUIPER-00223","OBJECT_ID":"2026-030V","EPOCH":"2026-03-12T18:47:23.577792","MEAN_MOTION":15.34266835,"ECCENTRICITY":0.00124002,"INCLINATION":51.8835,"RA_OF_ASC_NODE":204.5516,"ARG_OF_PERICENTER":67.4257,"MEAN_ANOMALY":292.8039,"EPHEMERIS_TYPE":0,"CLASSIFICATION_TYPE":"U","NORAD_CAT_ID":67783,"ELEMENT_SET_NO":999,"REV_AT_EPOCH":556,"BSTAR":0.0011228961,"MEAN_MOTION_DOT":0.0003771,"MEAN_MOTION_DDOT":0},{"OBJECT_NAME":"KUIPER-00225","OBJECT_ID":"2026-030W","EPOCH":"2026-03-12T18:03:27.982080","MEAN_MOTION":15.35574856,"ECCENTRICITY":0.00030287,"INCLINATION":51.8813,"RA_OF_ASC_NODE":204.3497,"ARG_OF_PERICENTER":38.5587,"MEAN_ANOMALY":321.5615,"EPHEMERIS_TYPE":0,"CLASSIFICATION_TYPE":"U","NORAD_CAT_ID":67784,"ELEMENT_SET_NO":999,"REV_AT_EPOCH":556,"BSTAR":0.016523309,"MEAN_MOTION_DOT":0.00622202,"MEAN_MOTION_DDOT":0},{"OBJECT_NAME":"KUIPER-00226","OBJECT_ID":"2026-030X","EPOCH":"2026-03-12T18:14:53.561760","MEAN_MOTION":15.3064908,"ECCENTRICITY":0.00194413,"INCLINATION":51.8829,"RA_OF_ASC_NODE":205.1308,"ARG_OF_PERICENTER":80.7069,"MEAN_ANOMALY":279.6113,"EPHEMERIS_TYPE":0,"CLASSIFICATION_TYPE":"U","NORAD_CAT_ID":67785,"ELEMENT_SET_NO":999,"REV_AT_EPOCH":555,"BSTAR":0.0011851992,"MEAN_MOTION_DOT":0.00035628,"MEAN_MOTION_DDOT":0}]
