KUIPER-00198            
1 67770U 26030G   26071.75010705  .00032668  00000+0  91728-3 0  9993
2 67770  51.8815 204.3350 0003864  50.0974 310.0351 15.36244731  5565
KUIPER-00199            
1 67771U 26030H   26071.77999332  .00034620  00000+0  10239-2 0  9995
2 67771  51.8816 204.5267 0010957  68.1463 292.0687 15.34538938  5564
KUIPER-00200            
1 67772U 26030J   26072.38214260  .00029303  00000+0  79730-3 0  9998
2 67772  51.8806 201.0760 0000921 282.8491  77.2393 15.37284018  5668
KUIPER-00203            
1 67773U 26030K   26072.58334491 -.01029508  00000+0 -72278-1 0  9998
2 67773  51.8931 202.0625 0011681  75.0118  20.2528 15.07372900  4259
KUIPER-00205            
1 67774U 26030L   26072.32967071  .00032065  00000+0  89022-3 0  9993
2 67774  51.8812 201.4717 0003811  32.3796 327.7424 15.36606584  5652
KUIPER-00208            
1 67775U 26030M   26072.39012556  .00027117  00000+0  86446-3 0  9999
2 67775  51.8829 201.8662 0015826  70.3346 289.9345 15.32220488  5658
KUIPER-00209            
1 67776U 26030N   26072.01455909  .00035377  00000+0  12163-2 0  9993
2 67776  51.8850 203.8399 0012944  71.0162 289.2223 15.29684337  5598
KUIPER-00213            
1 67777U 26030P   26072.38865330  .00027505  00000+0  86285-3 0  9998
2 67777  51.8798 201.8465 0015611  74.4465 285.8242 15.32729182  5651
KUIPER-00214            
1 67778U 26030Q   26072.38647211  .00041230  00000+0  11266-2 0  9992
2 67778  51.8838 201.1124 0000623  74.7281 285.3775 15.36984547  5667
KUIPER-00215            
1 67779U 26030R   26070.73596724  .00032228  00000+0  95286-3 0  9994
2 67779  51.8834 209.5383 0010520  66.2297 293.9791 15.34588543  5402
KUIPER-00218            
1 67780U 26030S   26071.63471860  .00032970  00000+0  95182-3 0  9998
2 67780  51.8841 205.0636 0007103  58.4826 301.6853 15.35355842  5544
KUIPER-00220            
1 67781U 26030T   26072.35897381  .00030856  00000+0  90216-3 0  9993
2 67781  51.8828 201.6627 0009251  66.4820 293.7137 15.34974825  5656
KUIPER-00222            
1 67782U 26030U   26072.58334491  .00002687  00000+0  96735-4 0  9991
2 67782  51.8797 200.9750 0017575  79.7400 244.8438 15.32196488  5537
KUIPER-00223            
1 67783U 26030V   26071.78291178  .00037710  00000+0  11229-2 0  9995
2 67783  51.8835 204.5516 0012400  67.4257 292.8039 15.34266835  5566
KUIPER-00225            
1 67784U 26030W   26071.75240720  .00622202  00000+0  16523-1 0  9997
2 67784  51.8813 204.3497 0003028  38.5587 321.5615 15.35574856  5566
KUIPER-00226            
1 67785U 26030X   26071.76034215  .00035628  00000+0  11852-2 0  9990
2 67785  51.8829 205.1308 0019441  80.7069 279.6113 15.30649080  5556
